[{"OBJECT_NAME":"FLOCK 4BE-25","OBJECT_ID":"2024-149V","EPOCH":"2026-03-09T18:30:08.620704","MEAN_MOTION":15.3601114,"ECCENTRICITY":0.00017232,"INCLINATION":97.3839,"RA_OF_ASC_NODE":151.4375,"ARG_OF_PERICENTER":216.9138,"MEAN_ANOMALY":143.1988,"EPHEMERIS_TYPE":0,"CLASSIFICATION_TYPE":"U","NORAD_CAT_ID":60487,"ELEMENT_SET_NO":999,"REV_AT_EPOCH":8696,"BSTAR":0.00050937903,"MEAN_MOTION_DOT":0.00017801,"MEAN_MOTION_DDOT":0},{"OBJECT_NAME":"COSMOS 2292","OBJECT_ID":"1994-061A","EPOCH":"2026-03-09T21:53:12.387552","MEAN_MOTION":13.70280339,"ECCENTRICITY":0.08227551,"INCLINATION":82.9767,"RA_OF_ASC_NODE":346.3461,"ARG_OF_PERICENTER":72.9828,"MEAN_ANOMALY":295.9747,"EPHEMERIS_TYPE":0,"CLASSIFICATION_TYPE":"U","NORAD_CAT_ID":23278,"ELEMENT_SET_NO":999,"REV_AT_EPOCH":54440,"BSTAR":0.00037499431,"MEAN_MOTION_DOT":4.63e-5,"MEAN_MOTION_DDOT":0}]
